50475,ONEWEB-0395,2021,109.8,148.0,+,87.89,Active,1,LEO,Kazakhstan,UK,Commercial,Communications,Soyuz,1 50475U 21132G   24320.45603541 -.00000370  00000+0 -10803-2 0  9994,2 50475  87.8884 136.3955 0001321  99.0195 261.1082 13.11418075139866,13.11418075,0.0001321,LEO
50476,ONEWEB-0396,2021,109.2,148.0,+,87.91,Active,1,LEO,Kazakhstan,UK,Commercial,Communications,Soyuz,1 50476U 21132H   24320.60910540  .00000072  00000+0  15064-3 0  9994,2 50476  87.9094  90.5826 0001747 103.6786 256.4541 13.18685496145380,13.18685496,0.0001747,LEO
50477,ONEWEB-0397,2021,109.2,148.0,+,87.91,Active,1,LEO,Kazakhstan,UK,Commercial,Communications,Soyuz,1 50477U 21132J   24320.62332601  .00000090  00000+0  19462-3 0  9999,2 50477  87.9091  90.5813 0001862 100.8790 259.2552 13.18689136145362,13.18689136,0.0001862,LEO
50478,ONEWEB-0398,2021,109.81,148.0,+,87.89,Active,1,LEO,Kazakhstan,UK,Commercial,Communications,Soyuz,1 50478U 21132K   24320.50011079  .00001643  00000+0  45984-2 0  9992,2 50478  87.8875 136.3600 0000798  67.1699 292.9513 13.11410450139767,13.1141045,7.98e-05,LEO
50479,ONEWEB-0399,2021,109.8,148.0,+,87.89,Active,1,LEO,Kazakhstan,UK,Commercial,Communications,Soyuz,1 50479U 21132L   24320.48656409  .00000557  00000+0  15345-2 0  9993,2 50479  87.8877 136.3822 0001826  95.7286 264.4050 13.11417699139759,13.11417699,0.0001826,LEO
50480,ONEWEB-0400,2021,109.2,148.0,+,87.91,Active,1,LEO,Kazakhstan,UK,Commercial,Communications,Soyuz,1 50480U 21132M   24320.60277960  .00000022  00000+0  22675-4 0  9993,2 50480  87.9090  90.5832 0001389  96.6787 263.4504 13.18688028145350,13.18688028,0.0001389,LEO
50481,ONEWEB-0401,2021,109.2,148.0,+,87.91,Active,1,LEO,Kazakhstan,UK,Commercial,Communications,Soyuz,1 50481U 21132N   24320.41783999  .00000098  00000+0  21656-3 0  9997,2 50481  87.9086  90.6151 0001910  97.9655 262.1694 13.18686030145334,13.1868603,0.000191,LEO
50482,ONEWEB-0402,2021,109.2,148.0,+,87.91,Active,1,LEO,Kazakhstan,UK,Commercial,Communications,Soyuz,1 50482U 21132P   24320.61067638  .00000014  00000+0  29203-5 0  9991,2 50482  87.9090  90.5744 0002290  93.5489 266.5905 13.18683606145380,13.18683606,0.000229,LEO
